{"type": "FeatureCollection", "features": [ {"type": "Feature", "properties": {"norad_id": 36047, "name": "COSMOS 2251 DEB", "group": "cosmos-2251-debris", "lat": 63.67016791037478, "lon": 99.76284656237189, "alt_km": 574.9947003415136, "timestamp": "2025-12-22T04:03:39.565466+00:00", "meta": {"OBJECT_NAME": "COSMOS 2251 DEB", "OBJECT_ID": "1993-036AXJ", "EPOCH": "2025-12-21T14:43:47.582688", "MEAN_MOTION": 14.96371645, "ECCENTRICITY": 0.0008453, "INCLINATION": 74.0358, "RA_OF_ASC_NODE": 316.2268, "ARG_OF_PERICENTER": 345.644, "MEAN_ANOMALY": 14.4503, "EPHEMERIS_TYPE": 0, "CLASSIFICATION_TYPE": "U", "NORAD_CAT_ID": 36047, "ELEMENT_SET_NO": 999, "REV_AT_EPOCH": 66072, "BSTAR": 0.002228, "MEAN_MOTION_DOT": 0.00025307, "MEAN_MOTION_DDOT": 0}, "tle": {"line1": "1 36047U 93036AXJ 25355.61374517  .00025307  00000+0  22280-2 0  9997", "line2": "2 36047  74.0358 316.2268 0008453 345.6440  14.4503 14.96371645660727"}}, "geometry": {"type": "Point", "coordinates": [99.76284656237189, 63.67016791037478]}}, {"type": "Feature", "properties": {"norad_id": 36048, "name": "COSMOS 2251 DEB", "group": "cosmos-2251-debris", "lat": -40.24254749720284, "lon": 115.94469186849079, "alt_km": 777.6441992357286, "timestamp": "2025-12-22T04:03:39.565477+00:00", "meta": {"OBJECT_NAME": "COSMOS 2251 DEB", "OBJECT_ID": "1993-036AXK", "EPOCH": "2025-12-21T06:01:50.414016", "MEAN_MOTION": 14.37865645, "ECCENTRICITY": 0.0026967, "INCLINATION": 74.0573, "RA_OF_ASC_NODE": 283.6319, "ARG_OF_PERICENTER": 332.094, "MEAN_ANOMALY": 180.7418, "EPHEMERIS_TYPE": 0, "CLASSIFICATION_TYPE": "U", "NORAD_CAT_ID": 36048, "ELEMENT_SET_NO": 999, "REV_AT_EPOCH": 85624, "BSTAR": 0.00021907, "MEAN_MOTION_DOT": 6.37e-06, "MEAN_MOTION_DDOT": 0}, "tle": {"line1": "1 36048U 93036AXK 25355.25127794  .00000637  00000+0  21907-3 0  9996", "line2": "2 36048  74.0573 283.6319 0026967 332.0940 180.7418 14.37865645856245"}}, "geometry": {"type": "Point", "coordinates": [115.94469186849079, -40.24254749720284]}}, {"type": "Feature", "properties": {"norad_id": 36049, "name": "COSMOS 2251 DEB", "group": "cosmos-2251-debris", "lat": 67.5075799918646, "lon": 144.87579177133964, "alt_km": 681.999543639522, "timestamp": "2025-12-22T04:03:39.565487+00:00", "meta": {"OBJECT_NAME": "COSMOS 2251 DEB", "OBJECT_ID": "1993-036AXL", "EPOCH": "2025-12-19T00:11:29.887584", "MEAN_MOTION": 14.62222603, "ECCENTRICITY": 0.00103942, "INCLINATION": 74.0312, "RA_OF_ASC_NODE": 107.1751, "ARG_OF_PERICENTER": 195.1693, "MEAN_ANOMALY": 164.9164, "EPHEMERIS_TYPE": 0, "CLASSIFICATION_TYPE": "U", "NORAD_CAT_ID": 36049, "ELEMENT_SET_NO": 999, "REV_AT_EPOCH": 85456, "BSTAR": 0.00099664593, "MEAN_MOTION_DOT": 4.999e-05, "MEAN_MOTION_DDOT": 0}, "tle": {"line1": "1 36049U 93036AXL 25353.00798481  .00004999  00000+0  99665-3 0  9996", "line2": "2 36049  74.0312 107.1751 0010394 195.1693 164.9164 14.62222603854561"}}, "geometry": {"type": "Point", "coordinates": [144.87579177133964, 67.5075799918646]}}, {"type": "Feature", "properties": {"norad_id": 36050, "name": "COSMOS 2251 DEB", "group": "cosmos-2251-debris", "lat": 24.02763839702539, "lon": -177.8459672126948, "alt_km": 603.8684605978633, "timestamp": "2025-12-22T04:03:39.565496+00:00", "meta": {"OBJECT_NAME": "COSMOS 2251 DEB", "OBJECT_ID": "1993-036AXM", "EPOCH": "2025-12-21T18:21:07.316064", "MEAN_MOTION": 15.01154113, "ECCENTRICITY": 0.0088369, "INCLINATION": 74.0296, "RA_OF_ASC_NODE": 175.6427, "ARG_OF_PERICENTER": 253.2402, "MEAN_ANOMALY": 105.9076, "EPHEMERIS_TYPE": 0, "CLASSIFICATION_TYPE": "U", "NORAD_CAT_ID": 36050, "ELEMENT_SET_NO": 999, "REV_AT_EPOCH": 67170, "BSTAR": 0.00047817, "MEAN_MOTION_DOT": 6.624e-05, "MEAN_MOTION_DDOT": 0}, "tle": {"line1": "1 36050U 93036AXM 25355.76466801  .00006624  00000+0  47817-3 0  9990", "line2": "2 36050  74.0296 175.6427 0088369 253.2402 105.9076 15.01154113671709"}}, "geometry": {"type": "Point", "coordinates": [-177.8459672126948, 24.02763839702539]}}, {"type": "Feature", "properties": {"norad_id": 36053, "name": "COSMOS 2251 DEB", "group": "cosmos-2251-debris", "lat": -59.74973072163751, "lon": -15.656332908361954, "alt_km": 730.781376643843, "timestamp": "2025-12-22T04:03:39.565506+00:00", "meta": {"OBJECT_NAME": "COSMOS 2251 DEB", "OBJECT_ID": "1993-036AXQ", "EPOCH": "2025-12-19T02:27:11.674944", "MEAN_MOTION": 14.57252603, "ECCENTRICITY": 0.00325446, "INCLINATION": 73.8697, "RA_OF_ASC_NODE": 140.476, "ARG_OF_PERICENTER": 87.3695, "MEAN_ANOMALY": 273.1193, "EPHEMERIS_TYPE": 0, "CLASSIFICATION_TYPE": "U", "NORAD_CAT_ID": 36053, "ELEMENT_SET_NO": 999, "REV_AT_EPOCH": 87537, "BSTAR": 0.0010759038, "MEAN_MOTION_DOT": 4.872e-05, "MEAN_MOTION_DDOT": 0}, "tle": {"line1": "1 36053U 93036AXQ 25353.10221846  .00004872  00000+0  10759-2 0  9994", "line2": "2 36053  73.8697 140.4760 0032544  87.3695 273.1193 14.57252603875378"}}, "geometry": {"type": "Point", "coordinates": [-15.656332908361954, -59.74973072163751]}}, {"type": "Feature", "properties": {"norad_id": 36058, "name": "COSMOS 2251 DEB", "group": "cosmos-2251-debris", "lat": 56.15324769438415, "lon": 40.778879674871696, "alt_km": 690.0312223555047, "timestamp": "2025-12-22T04:03:39.565516+00:00", "meta": {"OBJECT_NAME": "COSMOS 2251 DEB", "OBJECT_ID": "1993-036AXV", "EPOCH": "2025-12-20T18:52:04.818432", "MEAN_MOTION": 14.58726339, "ECCENTRICITY": 0.00440828, "INCLINATION": 74.0229, "RA_OF_ASC_NODE": 18.1226, "ARG_OF_PERICENTER": 150.2394, "MEAN_ANOMALY": 210.1292, "EPHEMERIS_TYPE": 0, "CLASSIFICATION_TYPE": "U", "NORAD_CAT_ID": 36058, "ELEMENT_SET_NO": 999, "REV_AT_EPOCH": 66228, "BSTAR": 0.0002931852, "MEAN_MOTION_DOT": 1.357e-05, "MEAN_MOTION_DDOT": 0}, "tle": {"line1": "1 36058U 93036AXV 25354.78616688  .00001357  00000+0  29319-3 0  9994", "line2": "2 36058  74.0229  18.1226 0044082 150.2394 210.1292 14.58726339662289"}}, "geometry": {"type": "Point", "coordinates": [40.778879674871696, 56.15324769438415]}}, {"type": "Feature", "properties": {"norad_id": 36060, "name": "COSMOS 2251 DEB", "group": "cosmos-2251-debris", "lat": 59.28046856447611, "lon": 8.26461831927221, "alt_km": 756.3803463098502, "timestamp": "2025-12-22T04:03:39.565549+00:00", "meta": {"OBJECT_NAME": "COSMOS 2251 DEB", "OBJECT_ID": "1993-036AXX", "EPOCH": "2025-12-21T20:51:43.648416", "MEAN_MOTION": 14.42017539, "ECCENTRICITY": 0.0015553, "INCLINATION": 74.0279, "RA_OF_ASC_NODE": 217.6359, "ARG_OF_PERICENTER": 313.6591, "MEAN_ANOMALY": 46.3274, "EPHEMERIS_TYPE": 0, "CLASSIFICATION_TYPE": "U", "NORAD_CAT_ID": 36060, "ELEMENT_SET_NO": 999, "REV_AT_EPOCH": 85141, "BSTAR": 0.00023238, "MEAN_MOTION_DOT": 7.37e-06, "MEAN_MOTION_DDOT": 0}, "tle": {"line1": "1 36060U 93036AXX 25355.86925519  .00000737  00000+0  23238-3 0  9998", "line2": "2 36060  74.0279 217.6359 0015553 313.6591  46.3274 14.42017539851417"}}, "geometry": {"type": "Point", "coordinates": [8.26461831927221, 59.28046856447611]}}, {"type": "Feature", "properties": {"norad_id": 36061, "name": "COSMOS 2251 DEB", "group": "cosmos-2251-debris", "lat": 15.604936826983238, "lon": -12.909780778956224, "alt_km": 763.09307740238, "timestamp": "2025-12-22T04:03:39.565560+00:00", "meta": {"OBJECT_NAME": "COSMOS 2251 DEB", "OBJECT_ID": "1993-036AXY", "EPOCH": "2025-12-20T16:49:06.144384", "MEAN_MOTION": 14.33720119, "ECCENTRICITY": 0.00368808, "INCLINATION": 74.0242, "RA_OF_ASC_NODE": 345.1877, "ARG_OF_PERICENTER": 70.6074, "MEAN_ANOMALY": 289.9058, "EPHEMERIS_TYPE": 0, "CLASSIFICATION_TYPE": "U", "NORAD_CAT_ID": 36061, "ELEMENT_SET_NO": 999, "REV_AT_EPOCH": 65218, "BSTAR": 0.00020724072, "MEAN_MOTION_DOT": 5.54e-06, "MEAN_MOTION_DDOT": 0}, "tle": {"line1": "1 36061U 93036AXY 25354.70076556  .00000554  00000+0  20724-3 0  9993", "line2": "2 36061  74.0242 345.1877 0036880  70.6074 289.9058 14.33720119652185"}}, "geometry": {"type": "Point", "coordinates": [-12.909780778956224, 15.604936826983238]}}, {"type": "Feature", "properties": {"norad_id": 36073, "name": "COSMOS 2251 DEB", "group": "cosmos-2251-debris", "lat": 23.470760205612045, "lon": 118.13468087717419, "alt_km": 788.3811319848319, "timestamp": "2025-12-22T04:03:39.565571+00:00", "meta": {"OBJECT_NAME": "COSMOS 2251 DEB", "OBJECT_ID": "1993-036AYL", "EPOCH": "2025-12-18T03:58:06.481920", "MEAN_MOTION": 14.34959898, "ECCENTRICITY": 0.00240895, "INCLINATION": 74.0326, "RA_OF_ASC_NODE": 312.6126, "ARG_OF_PERICENTER": 19.0207, "MEAN_ANOMALY": 341.1839, "EPHEMERIS_TYPE": 0, "CLASSIFICATION_TYPE": "U", "NORAD_CAT_ID": 36073, "ELEMENT_SET_NO": 999, "REV_AT_EPOCH": 70285, "BSTAR": 0.0001893667, "MEAN_MOTION_DOT": 5.14e-06, "MEAN_MOTION_DDOT": 0}, "tle": {"line1": "1 36073U 93036AYL 25352.16535280  .00000514  00000+0  18937-3 0  9997", "line2": "2 36073  74.0326 312.6126 0024089  19.0207 341.1839 14.34959898702857"}}, "geometry": {"type": "Point", "coordinates": [118.13468087717419, 23.470760205612045]}}, {"type": "Feature", "properties": {"norad_id": 36074, "name": "COSMOS 2251 DEB", "group": "cosmos-2251-debris", "lat": -48.08506039386621, "lon": 161.56132846616254, "alt_km": 782.0853745936729, "timestamp": "2025-12-22T04:03:39.565581+00:00", "meta": {"OBJECT_NAME": "COSMOS 2251 DEB", "OBJECT_ID": "1993-036AYM", "EPOCH": "2025-12-17T04:55:34.739616", "MEAN_MOTION": 14.43760583, "ECCENTRICITY": 0.00415505, "INCLINATION": 73.9924, "RA_OF_ASC_NODE": 332.1608, "ARG_OF_PERICENTER": 62.4035, "MEAN_ANOMALY": 298.1332, "EPHEMERIS_TYPE": 0, "CLASSIFICATION_TYPE": "U", "NORAD_CAT_ID": 36074, "ELEMENT_SET_NO": 999, "REV_AT_EPOCH": 85974, "BSTAR": 0.00075567049, "MEAN_MOTION_DOT": 2.571e-05, "MEAN_MOTION_DDOT": 0}, "tle": {"line1": "1 36074U 93036AYM 25351.20526319  .00002571  00000+0  75567-3 0  9992", "line2": "2 36074  73.9924 332.1608 0041550  62.4035 298.1332 14.43760583859746"}}, "geometry": {"type": "Point", "coordinates": [161.56132846616254, -48.08506039386621]}}]}